[{"OBJECT_NAME":"STARLINK-5409","OBJECT_ID":"2022-177AR","EPOCH":"2026-03-09T22:00:01.999584","MEAN_MOTION":15.10109189,"ECCENTRICITY":0.00022502,"INCLINATION":43.0003,"RA_OF_ASC_NODE":118.7951,"ARG_OF_PERICENTER":265.5893,"MEAN_ANOMALY":66.3933,"EPHEMERIS_TYPE":0,"CLASSIFICATION_TYPE":"U","NORAD_CAT_ID":54859,"ELEMENT_SET_NO":999,"REV_AT_EPOCH":577,"BSTAR":0.0015211462,"MEAN_MOTION_DOT":0.00025091,"MEAN_MOTION_DDOT":0},{"OBJECT_NAME":"COSMOS 1275 DEB","OBJECT_ID":"1981-053RH","EPOCH":"2026-03-08T19:02:02.535360","MEAN_MOTION":15.08606043,"ECCENTRICITY":0.00097404,"INCLINATION":83.3308,"RA_OF_ASC_NODE":196.5935,"ARG_OF_PERICENTER":282.896,"MEAN_ANOMALY":77.1182,"EPHEMERIS_TYPE":0,"CLASSIFICATION_TYPE":"U","NORAD_CAT_ID":42145,"ELEMENT_SET_NO":999,"REV_AT_EPOCH":64889,"BSTAR":0.0090120528,"MEAN_MOTION_DOT":0.00143721,"MEAN_MOTION_DDOT":0}]
